STARLINK-36176          
1 67026U 25293Z   25356.83335647 -.01645734  00000+0 -76718-2 0  9994
2 67026  69.9926 294.4370 0003890 262.4184  22.0028 15.85880574  1848
STARLINK-36171          
1 67027U 25293AA  25356.83335647 -.01636451  00000+0 -76210-2 0  9998
2 67027  69.9924 294.4399 0003899 263.8019  18.3799 15.85883986  1842
STARLINK-36132          
1 67028U 25293AB  25356.83335647 -.01643191  00000+0 -76743-2 0  9999
2 67028  69.9929 294.4310 0003972 265.7230  23.9305 15.85836320  1844
STARLINK-36190          
1 67029U 25293AC  25356.83335647 -.01640924  00000+0 -76525-2 0  9999
2 67029  69.9930 294.4346 0003926 264.9116  21.8727 15.85862972  1846
STARLINK-36138          
1 67030U 25294A   25356.83335647 -.01892235  00000+0 -10629-1 0  9998
2 67030  42.9997 120.3920 0001372 275.6572 310.4507 15.81319252  1730
STARLINK-36150          
1 67031U 25294B   25356.83335647 -.01893727  00000+0 -10634-1 0  9992
2 67031  43.0001 120.3872 0001455 285.5257 302.3444 15.81327575  1925
STARLINK-36131          
1 67032U 25294C   25356.83335647 -.01881467  00000+0 -10567-1 0  9996
2 67032  43.0002 120.3764 0001422 279.1535 312.9367 15.81304019  1737
STARLINK-36137          
1 67033U 25294D   25356.83335647 -.01890559  00000+0 -10619-1 0  9997
2 67033  43.0000 120.3819 0001465 283.7821 306.1817 15.81316911  1732
STARLINK-36140          
1 67034U 25294E   25356.58335648 -.01932128  00000+0 -10361-1 0  9994
2 67034  42.9997 121.9033 0001602 269.9674 339.0039 15.82364276  1690
STARLINK-36085          
1 67035U 25294F   25356.83335647 -.01890962  00000+0 -10646-1 0  9997
2 67035  43.0001 120.3595 0001558 276.4302 322.5155 15.81267012  1736
STARLINK-36125          
1 67036U 25294G   25356.83335647 -.01890504  00000+0 -10636-1 0  9999
2 67036  42.9999 120.3653 0001468 281.1557 315.4919 15.81282057  1927
STARLINK-35732          
1 67037U 25294H   25356.83335647 -.01893379  00000+0 -10670-1 0  9991
2 67037  42.9999 120.3536 0001579 278.2403 323.1311 15.81250560  1845
